[{"OBJECT_NAME":"STARLINK-30335","OBJECT_ID":"2023-129N","EPOCH":"2026-03-09T03:49:43.614912","MEAN_MOTION":15.26729078,"ECCENTRICITY":0.00012729,"INCLINATION":42.9975,"RA_OF_ASC_NODE":120.7118,"ARG_OF_PERICENTER":246.3982,"MEAN_ANOMALY":113.6736,"EPHEMERIS_TYPE":0,"CLASSIFICATION_TYPE":"U","NORAD_CAT_ID":57710,"ELEMENT_SET_NO":999,"REV_AT_EPOCH":14060,"BSTAR":5.0160854e-5,"MEAN_MOTION_DOT":1.086e-5,"MEAN_MOTION_DDOT":0},{"OBJECT_NAME":"FLOCK 4G-25","OBJECT_ID":"2025-009AP","EPOCH":"2026-03-09T17:53:50.680608","MEAN_MOTION":15.27424196,"ECCENTRICITY":8.276e-5,"INCLINATION":97.4049,"RA_OF_ASC_NODE":151.4141,"ARG_OF_PERICENTER":316.3151,"MEAN_ANOMALY":43.8023,"EPHEMERIS_TYPE":0,"CLASSIFICATION_TYPE":"U","NORAD_CAT_ID":62646,"ELEMENT_SET_NO":999,"REV_AT_EPOCH":6373,"BSTAR":0.00038902475,"MEAN_MOTION_DOT":0.00010373,"MEAN_MOTION_DDOT":0}]
